NORAD_CAT_ID,EPOCH,MEAN_MOTION,ECCENTRICITY,INCLINATION,RA_OF_ASC_NODE,ARG_OF_PERICENTER,MEAN_ANOMALY,APOAPSIS,PERIAPSIS,BSTAR,COUNTRY_CODE,RCS_SIZE,NAME,LINE1,LINE2
61335,2025-08-08T21:41:47.674464,15.32143006,0.0091332,89.0027,305.3821,158.8313,201.6759,531.962,406.882,0.005059,PRC,SMALL,0 CZ-6A DEB,1 61335U 24140UY  25220.90402401  .00182468  00000-0  50590-2 0  9990,2 61335  89.0027 305.3821 0091332 158.8313 201.6759 15.32143006 51039
61336,2025-08-08T11:55:37.528896,14.08015822,0.0114418,88.8601,304.7135,148.5506,212.2585,949.059,783.284,0.0012588,PRC,SMALL,0 CZ-6A DEB,1 61336U 24140UZ  25220.49696214  .00002287  00000-0  12588-2 0  9997,2 61336  88.8601 304.7135 0114418 148.5506 212.2585 14.08015822 47695
61338,2025-08-08T17:54:22.207104,14.14020098,0.0096094,88.9995,310.314,143.8004,216.9738,915.066,776.233,0.0019958,PRC,SMALL,0 CZ-6A DEB,1 61338U 24140VB  25220.74609036  .00003977  00000-0  19958-2 0  9998,2 61338  88.9995 310.3140 0096094 143.8004 216.9738 14.14020098 47917
61339,2025-08-08T23:32:59.570592,14.52172246,0.0108387,88.9858,306.7862,252.2794,106.656,795.484,641.646,0.00011548,PRC,SMALL,0 CZ-6A DEB,1 61339U 24140VC  25220.98124503  .00000522  00000-0  11548-3 0  9997,2 61339  88.9858 306.7862 0108387 252.2794 106.6560 14.52172246 49315
61340,2025-08-09T12:33:56.473920,14.66286942,0.0173584,89.0294,307.7731,173.2486,187.1131,795.344,550.553,0.00051795,PRC,SMALL,0 CZ-6A DEB,1 61340U 24140VD  25221.52357030  .00003599  00000-0  51795-3 0  9998,2 61340  89.0294 307.7731 0173584 173.2486 187.1131 14.66286942 49828
61345,2025-08-09T04:02:29.785056,14.44635467,0.0113193,88.6411,292.0916,191.4843,168.3777,823.835,662.617,0.00047292,PRC,SMALL,0 CZ-6A DEB,1 61345U 24140VJ  25221.16840029  .00001788  00000-0  47292-3 0  9993,2 61345  88.6411 292.0916 0113193 191.4843 168.3777 14.44635467 49057
61346,2025-08-09T12:32:42.952704,14.69624863,0.0071168,88.9687,305.491,236.6183,122.8212,712.373,612.163,0.0034821,PRC,SMALL,0 CZ-6A DEB,1 61346U 24140VK  25221.52271936  .00021580  00000-0  34821-2 0  9994,2 61346  88.9687 305.4910 0071168 236.6183 122.8212 14.69624863 49709
61347,2025-08-09T07:38:48.391296,14.40796635,0.00801,89.6768,338.2423,177.2128,182.9538,813.013,698.726,0.0022003,PRC,SMALL,0 CZ-6A DEB,1 61347U 24140VL  25221.31861564  .00007329  00000-0  22003-2 0  9998,2 61347  89.6768 338.2423 0080100 177.2128 182.9538 14.40796635 48877
61349,2025-08-08T17:16:34.381632,14.61545123,0.0139473,89.0756,310.3154,245.6111,113.0494,786.747,589.635,0.00051979,PRC,SMALL,0 CZ-6A DEB,1 61349U 24140VN  25220.71984238  .00002980  00000-0  51979-3 0  9990,2 61349  89.0756 310.3154 0139473 245.6111 113.0494 14.61545123 49551
61350,2025-08-08T16:54:35.661888,14.26038826,0.0083676,89.1286,314.9443,174.648,185.5629,865.11,744.898,0.001074,PRC,SMALL,0 CZ-6A DEB,1 61350U 24140VP  25220.70457942  .00002674  00000-0  10740-2 0  9998,2 61350  89.1286 314.9443 0083676 174.6480 185.5629 14.26038826 48355
61351,2025-08-09T05:28:13.364544,14.51234812,0.0116577,89.0738,310.8665,284.65,74.1806,804.387,638.854,0.00044936,PRC,SMALL,0 CZ-6A DEB,1 61351U 24140VQ  25221.22793246  .00001965  00000-0  44936-3 0  9994,2 61351  89.0738 310.8665 0116577 284.6500  74.1806 14.51234812 49295
61352,2025-08-08T16:30:52.070688,14.26648511,0.0028197,89.006,309.5975,93.2712,267.1708,823.206,782.709,0.00075944,PRC,SMALL,0 CZ-6A DEB,1 61352U 24140VR  25220.68810267  .00001856  00000-0  75944-3 0  9999,2 61352  89.0060 309.5975 0028197  93.2712 267.1708 14.26648511 48417
61354,2025-08-09T05:32:40.710336,14.58723815,0.0115051,89.0244,308.1254,241.4569,117.5023,778.703,615.896,0.00049647,PRC,SMALL,0 CZ-6A DEB,1 61354U 24140VT  25221.23102674  .00002556  00000-0  49647-3 0  9998,2 61354  89.0244 308.1254 0115051 241.4569 117.5023 14.58723815 49584
61355,2025-08-08T16:14:12.990336,14.52041042,0.0087545,88.9913,307.2093,250.7493,108.4229,781.124,656.86,0.00039587,PRC,SMALL,0 CZ-6A DEB,1 61355U 24140VU  25220.67653924  .00001698  00000-0  39587-3 0  9993,2 61355  88.9913 307.2093 0087545 250.7493 108.4229 14.52041042 49308
61356,2025-08-09T05:19:51.358944,14.25660099,0.0041329,88.977,308.3639,153.5109,206.8209,835.969,776.584,0.00075866,PRC,SMALL,0 CZ-6A DEB,1 61356U 24140VV  25221.22212221  .00001828  00000-0  75866-3 0  9992,2 61356  88.9770 308.3639 0041329 153.5109 206.8209 14.25660099 48491
61357,2025-08-08T04:12:41.902272,14.22092611,0.0107862,88.6813,296.1574,58.7078,302.4621,895.908,740.664,0.0009173,PRC,SMALL,0 CZ-6A DEB,1 61357U 24140VW  25220.17548498  .00002169  00000-0  91730-3 0  9991,2 61357  88.6813 296.1574 0107862  58.7078 302.4621 14.22092611 48054
61358,2025-08-09T04:32:53.942208,14.48534176,0.0085132,88.9328,304.6706,252.8929,106.2941,790.959,669.925,0.0001767,PRC,SMALL,0 CZ-6A DEB,1 61358U 24140VX  25221.18951322  .00000710  00000-0  17670-3 0  9999,2 61358  88.9328 304.6706 0085132 252.8929 106.2941 14.48534176 49150
61359,2025-08-08T23:06:09.083232,14.2206687,0.0051523,89.06,312.1616,127.728,232.8598,855.452,781.295,0.0011807,PRC,SMALL,0 CZ-6A DEB,1 61359U 24140VY  25220.96260513  .00002660  00000-0  11807-2 0  9991,2 61359  89.0600 312.1616 0051523 127.7280 232.8598 14.22066870 48186
61360,2025-08-08T23:12:56.454912,14.18940477,0.005267,89.0254,310.8389,122.9467,237.6803,866.9,790.981,0.00043865,PRC,SMALL,0 CZ-6A DEB,1 61360U 24140VZ  25220.96732008  .00000941  00000-0  43865-3 0  9996,2 61360  89.0254 310.8389 0052670 122.9467 237.6803 14.18940477 48128
61361,2025-08-08T17:26:10.421664,14.51963176,0.0107521,89.0466,309.5861,263.0624,95.8344,795.558,642.934,0.00019558,PRC,SMALL,0 CZ-6A DEB,1 61361U 24140WA  25220.72650951  .00000867  00000-0  19558-3 0  9996,2 61361  89.0466 309.5861 0107521 263.0624  95.8344 14.51963176 49204
61362,2025-08-08T18:29:07.756224,14.13259493,0.0077247,89.1309,315.6638,126.8638,233.9663,904.063,792.42,0.00038779,PRC,SMALL,0 CZ-6A DEB,1 61362U 24140WB  25220.77022866  .00000761  00000-0  38779-3 0  9999,2 61362  89.1309 315.6638 0077247 126.8638 233.9663 14.13259493 47917
61363,2025-08-08T16:47:23.897760,14.25348,0.0039365,89.0775,312.6939,63.4593,297.0627,835.61,779.039,0.00051344,PRC,SMALL,0 CZ-6A DEB,1 61363U 24140WC  25220.69958215  .00001233  00000-0  51344-3 0  9995,2 61363  89.0775 312.6939 0039365  63.4593 297.0627 14.25348000 48299
61365,2025-08-09T12:33:41.740992,14.68528984,0.0172257,89.1329,312.3572,187.9434,171.9052,787.106,544.434,0.00026722,PRC,SMALL,0 CZ-6A DEB,1 61365U 24140WE  25221.52339978  .00001965  00000-0  26722-3 0  9993,2 61365  89.1329 312.3572 0172257 187.9434 171.9052 14.68528984 49775
61366,2025-08-08T16:16:57.222912,14.09169507,0.0112202,88.8532,304.4801,146.3855,214.4514,943.455,780.979,0.0017532,PRC,SMALL,0 CZ-6A DEB,1 61366U 24140WF  25220.67844008  .00003241  00000-0  17532-2 0  9991,2 61366  88.8532 304.4801 0112202 146.3855 214.4514 14.09169507 47608
61367,2025-08-09T04:34:24.409056,14.23895024,0.0031436,88.7745,299.6878,83.0664,277.4102,834.816,789.609,0.0002489,PRC,SMALL,0 CZ-6A DEB,1 61367U 24140WG  25221.19056029  .00000588  00000-0  24890-3 0  9995,2 61367  88.7745 299.6878 0031436  83.0664 277.4102 14.23895024 48235
61368,2025-08-09T04:05:48.786720,14.06109246,0.0123332,88.8354,303.8842,156.9542,203.7241,962.145,783.292,0.0013608,PRC,SMALL,0 CZ-6A DEB,1 61368U 24140WH  25221.17070355  .00002408  00000-0  13608-2 0  9999,2 61368  88.8354 303.8842 0123332 156.9542 203.7241 14.06109246 47582
61369,2025-08-09T04:40:38.891712,14.24199447,0.0025492,88.9996,309.323,91.0865,269.3248,829.515,792.86,0.00014815,PRC,SMALL,0 CZ-6A DEB,1 61369U 24140WJ  25221.19489458  .00000357  00000-0  14815-3 0  9993,2 61369  88.9996 309.3230 0025492  91.0865 269.3248 14.24199447 49302
61370,2025-08-09T00:14:32.842176,13.86169579,0.0244737,89.0192,312.7394,215.3849,143.0873,1121.24,762.934,0.0025618,PRC,SMALL,0 CZ-6A DEB,1 61370U 24140WK  25221.01010234  .00003749  00000-0  25618-2 0  9998,2 61370  89.0192 312.7394 0244737 215.3849 143.0873 13.86169579 46894
61371,2025-08-08T21:39:38.547072,14.37854017,0.0118447,88.4395,284.2272,357.1624,2.8888,850.215,680.984,0.0013533,PRC,SMALL,0 CZ-6A DEB,1 61371U 24140WL  25220.90252948  .00004441  00000-0  13533-2 0  9999,2 61371  88.4395 284.2272 0118447 357.1624   2.8888 14.37854017 48575
61372,2025-08-08T16:20:12.251040,14.2373622,0.003677,89.0113,309.9181,139.4363,220.958,839.188,786.306,0.00033066,PRC,SMALL,0 CZ-6A DEB,1 61372U 24140WM  25220.68069735  .00000775  00000-0  33066-3 0  9995,2 61372  89.0113 309.9181 0036770 139.4363 220.9580 14.23736220 48150
61373,2025-08-08T16:08:23.244000,14.468048,0.0099039,88.7501,297.1813,181.834,178.2517,806.564,665.647,0.001493,PRC,SMALL,0 CZ-6A DEB,1 61373U 24140WN  25220.67249125  .00005765  00000-0  14930-2 0  9990,2 61373  88.7501 297.1813 0099039 181.8340 178.2517 14.46804800 48825
61376,2025-08-08T12:13:23.311776,14.17845492,0.0061723,89.0109,310.3879,138.969,221.6167,877.158,788.143,0.00030167,PRC,SMALL,0 CZ-6A DEB,1 61376U 24140WR  25220.50929759  .00000642  00000-0  30167-3 0  9993,2 61376  89.0109 310.3879 0061723 138.9690 221.6167 14.17845492 47953
61377,2025-08-09T12:21:32.145696,14.98346597,0.0096801,89.2281,316.1178,176.7711,183.417,639.285,504.729,0.0048564,PRC,SMALL,0 CZ-6A DEB,1 61377U 24140WS  25221.51495539  .00064200  00000-0  48564-2 0  9999,2 61377  89.2281 316.1178 0096801 176.7711 183.4170 14.98346597 50361
61379,2025-08-09T05:31:28.232832,15.28595595,0.0052705,89.2867,319.5581,116.4124,244.2549,516.158,443.866,0.0090255,PRC,SMALL,0 CZ-6A DEB,1 61379U 24140WU  25221.23018788  .00269921  00000-0  90255-2 0  9998,2 61379  89.2867 319.5581 0052705 116.4124 244.2549 15.28595595 50614
61380,2025-08-07T17:30:58.623552,14.4749196,0.00740284,89.1343,313.9318,275.753,83.5239,786.503,681.205,0.00037889364,PRC,SMALL,0 CZ-6A DEB,1 61380U 24140WV  25219.72984518  .00001455  00000-0  37889-3 0  9995,2 61380  89.1343 313.9318 0074028 275.7530  83.5239 14.47491960 48867
